STARLINK-36212          
1 67216U 25304AA  26004.16668980 -.02107818  00000+0 -34046-1 0  9998
2 67216  69.9998 344.1683 0003558 271.0466 114.3332 15.55883937  4072
STARLINK-36216          
1 67217U 25304AB  26004.16668980 -.02104327  00000+0 -33985-1 0  9992
2 67217  69.9996 344.1662 0003616 273.1172 114.1795 15.55881461  4071
STARLINK-36211          
1 67218U 25304AC  26004.16668980 -.02107173  00000+0 -34037-1 0  9994
2 67218  69.9995 344.1639 0003590 271.8560 117.3608 15.55880921  4047
DISKSAT A               
1 67219U 25305A   25354.38090451  .00000510  00000+0  50887-4 0  9996
2 67219  45.0057 310.0654 0003912 276.1097  83.9332 15.05762698   337
DISKSAT B               
1 67220U 25305B   25354.24828476  .00000511  00000+0  51086-4 0  9992
2 67220  45.0108 310.7693 0004681 270.4757  89.5581 15.05702195   312
DISKSAT C               
1 67221U 25305C   25354.31471422  .00001256  00000+0  10191-3 0  9994
2 67221  45.0067 310.4143 0004387 282.7791  77.2594 15.05653670   312
DISKSAT D               
1 67222U 25305D   25354.31483363  .00001252  00000+0  10184-3 0  9990
2 67222  45.0056 310.4150 0004477 287.6101  72.4284 15.05567005   317
ELECTRON KICK STAGE R/B 
1 67223U 25305E   25357.29083347  .00018707  00000+0  18366-3 0  9992
2 67223  44.9877 292.9264 0177490 166.6089 193.9601 15.48545747   794
ELECTRON R/B            
1 67224U 25305F   26004.00209163  .00691173  99077-5  29221-3 0  9992
2 67224  44.9925 222.1284 0113449  17.9961 342.4920 16.08211587  2658
TJS-23                  
1 67226U 25306A   26004.05376951  .00000025  00000+0  00000+0 0  9992
2 67226   5.9617 298.3417 0001032 286.7596  73.4566  1.00276227   240
CZ-5 R/B                
1 67227U 25306B   26002.23975566  .00003994  00000+0  95745-3 0  9990
2 67227  16.3556 294.8442 7582788 186.5720 149.5922  1.92311739   265
QPS-SAR-15              
1 67228U 25307A   26004.10795855  .00008939  00000+0  77322-3 0  9996
2 67228  42.0078  47.8468 0009054 352.1115   7.9566 14.97253632  2075
